start=new Date('2021-12-31T00:00:00.000Z').valueOf();
sats=[{"TLE_LINE2":"2 47370  53.0564  50.3799 0001303  77.6305 282.4830 15.06390832 52993","OBJECT_TYPE":"PAYLOAD","SITE":"AFETR","RA_OF_ASC_NODE":"50.3799","REF_FRAME":"TEME","ELEMENT_SET_NO":"999","OBJECT_NAME":"STARLINK-2086","OBJECT_ID":"2021-005X","CLASSIFICATION_TYPE":"U","SEMIMAJOR_AXIS":"6925.377","INCLINATION":"53.0564","EPHEMERIS_TYPE":"0","MEAN_ELEMENT_THEORY":"SGP4","ECCENTRICITY":"0.00013030","MEAN_MOTION_DOT":"-0.00001670","PERIAPSIS":"546.339","BSTAR":"-0.00009328600000","RCS_SIZE":"LARGE","REV_AT_EPOCH":"5299","FILE":"3255240","MEAN_ANOMALY":"282.4830","APOAPSIS":"548.144","LAUNCH_DATE":"2021-01-20","NORAD_CAT_ID":"47370","EPOCH":"2021-12-30T14:50:43.733472","MEAN_MOTION_DDOT":"0.0000000000000","GP_ID":"192793904","ARG_OF_PERICENTER":"77.6305","DECAY_DATE":null,"TLE_LINE1":"1 47370U 21005X   21364.61856173 -.00001670  00000-0 -93286-4 0  9990","TIME_SYSTEM":"UTC","MEAN_MOTION":"15.06390832","PERIOD":"95.593","COUNTRY_CODE":"US","CENTER_NAME":"EARTH"},{"LAUNCH_DATE":"2021-01-20","APOAPSIS":"548.133","MEAN_ANOMALY":"269.4834","FILE":"3255239","REV_AT_EPOCH":"5240","RCS_SIZE":"LARGE","BSTAR":"0.00000286960000","PERIAPSIS":"546.399","MEAN_MOTION_DOT":"-0.00000239","ARG_OF_PERICENTER":"90.6299","MEAN_MOTION_DDOT":"0.0000000000000","GP_ID":"192770206","EPOCH":"2021-12-30T11:18:25.528320","NORAD_CAT_ID":"47371","COUNTRY_CODE":"US","PERIOD":"95.593","CENTER_NAME":"EARTH","MEAN_MOTION":"15.06383004","TIME_SYSTEM":"UTC","TLE_LINE1":"1 47371U 21005Y   21364.47112880 -.00000239  00000-0  28696-5 0  9998","DECAY_DATE":null,"SITE":"AFETR","TLE_LINE2":"2 47371  53.0553  91.0368 0001252  90.6299 269.4834 15.06383004 52404","OBJECT_TYPE":"PAYLOAD","OBJECT_ID":"2021-005Y","OBJECT_NAME":"STARLINK-2088","ELEMENT_SET_NO":"999","REF_FRAME":"TEME","RA_OF_ASC_NODE":"91.0368","INCLINATION":"53.0553","SEMIMAJOR_AXIS":"6925.401","CLASSIFICATION_TYPE":"U","ECCENTRICITY":"0.00012520","MEAN_ELEMENT_THEORY":"SGP4","EPHEMERIS_TYPE":"0"},{"MEAN_MOTION":"15.06394658","CENTER_NAME":"EARTH","COUNTRY_CODE":"US","PERIOD":"95.592","DECAY_DATE":null,"TLE_LINE1":"1 47372U 21005Z   21364.70100695 -.00000240  00000-0  28010-5 0  9998","TIME_SYSTEM":"UTC","NORAD_CAT_ID":"47372","EPOCH":"2021-12-30T16:49:27.000480","MEAN_MOTION_DDOT":"0.0000000000000","GP_ID":"192794906","ARG_OF_PERICENTER":"87.6477","FILE":"3255240","MEAN_ANOMALY":"272.4667","APOAPSIS":"548.171","LAUNCH_DATE":"2021-01-20","MEAN_MOTION_DOT":"-0.00000240","PERIAPSIS":"546.289","BSTAR":"0.00000280100000","RCS_SIZE":"LARGE","REV_AT_EPOCH":"5250","EPHEMERIS_TYPE":"0","MEAN_ELEMENT_THEORY":"SGP4","ECCENTRICITY":"0.00013590","CLASSIFICATION_TYPE":"U","SEMIMAJOR_AXIS":"6925.365","INCLINATION":"53.0546","OBJECT_NAME":"STARLINK-2089","OBJECT_ID":"2021-005Z","RA_OF_ASC_NODE":"84.9924","REF_FRAME":"TEME","ELEMENT_SET_NO":"999","TLE_LINE2":"2 47372  53.0546  84.9924 0001359  87.6477 272.4667 15.06394658 52504","OBJECT_TYPE":"PAYLOAD","SITE":"AFETR"},{"SITE":"AFETR","TLE_LINE2":"2 47373  53.0536  89.8543 0000940  88.3891 271.7206 15.06384896 52445","OBJECT_TYPE":"PAYLOAD","OBJECT_ID":"2021-005AA","OBJECT_NAME":"STARLINK-2092","REF_FRAME":"TEME","ELEMENT_SET_NO":"999","RA_OF_ASC_NODE":"89.8543","INCLINATION":"53.0536","SEMIMAJOR_AXIS":"6925.395","CLASSIFICATION_TYPE":"U","ECCENTRICITY":"0.00009400","MEAN_ELEMENT_THEORY":"SGP4","EPHEMERIS_TYPE":"0","LAUNCH_DATE":"2021-01-20","APOAPSIS":"547.911","MEAN_ANOMALY":"271.7206","FILE":"3255240","REV_AT_EPOCH":"5244","RCS_SIZE":"LARGE","BSTAR":"-0.00004195400000","PERIAPSIS":"546.609","MEAN_MOTION_DOT":"-0.00000906","ARG_OF_PERICENTER":"88.3891","MEAN_MOTION_DDOT":"0.0000000000000","GP_ID":"192794657","EPOCH":"2021-12-30T17:35:16.652832","NORAD_CAT_ID":"47373","CENTER_NAME":"EARTH","COUNTRY_CODE":"US","PERIOD":"95.593","MEAN_MOTION":"15.06384896","TLE_LINE1":"1 47373U 21005AA  21364.73283163 -.00000906  00000-0 -41954-4 0  9995","TIME_SYSTEM":"UTC","DECAY_DATE":null},{"OBJECT_TYPE":"PAYLOAD","TLE_LINE2":"2 47374  53.0535  90.7278 0001248  77.6595 282.4533 15.06389755 52413","SITE":"AFETR","OBJECT_NAME":"STARLINK-2093","OBJECT_ID":"2021-005AB","RA_OF_ASC_NODE":"90.7278","REF_FRAME":"TEME","ELEMENT_SET_NO":"999","CLASSIFICATION_TYPE":"U","SEMIMAJOR_AXIS":"6925.380","INCLINATION":"53.0535","EPHEMERIS_TYPE":"0","MEAN_ELEMENT_THEORY":"SGP4","ECCENTRICITY":"0.00012480","FILE":"3255239","MEAN_ANOMALY":"282.4533","APOAPSIS":"548.109","LAUNCH_DATE":"2021-01-20","PERIAPSIS":"546.381","MEAN_MOTION_DOT":"-0.00000024","BSTAR":"0.00001731300000","RCS_SIZE":"LARGE","REV_AT_EPOCH":"5241","NORAD_CAT_ID":"47374","EPOCH":"2021-12-30T13:19:08.253696","GP_ID":"192768955","MEAN_MOTION_DDOT":"0.0000000000000","ARG_OF_PERICENTER":"77.6595","MEAN_MOTION":"15.06389755","PERIOD":"95.593","COUNTRY_CODE":"US","CENTER_NAME":"EARTH","DECAY_DATE":null,"TIME_SYSTEM":"UTC","TLE_LINE1":"1 47374U 21005AB  21364.55495664 -.00000024  00000-0  17313-4 0  9999"},{"NORAD_CAT_ID":"47375","EPOCH":"2021-12-30T18:12:26.208288","MEAN_MOTION_DDOT":"0.0000000000000","GP_ID":"192794155","ARG_OF_PERICENTER":"84.2667","MEAN_MOTION":"15.06391926","COUNTRY_CODE":"US","PERIOD":"95.593","CENTER_NAME":"EARTH","DECAY_DATE":null,"TLE_LINE1":"1 47375U 21005AC  21364.75863667  .00000437  00000-0  48238-4 0  9991","TIME_SYSTEM":"UTC","FILE":"3255240","MEAN_ANOMALY":"275.8450","APOAPSIS":"548.018","LAUNCH_DATE":"2021-01-20","MEAN_MOTION_DOT":"0.00000437","PERIAPSIS":"546.459","BSTAR":"0.00004823800000","RCS_SIZE":"LARGE","REV_AT_EPOCH":"5244","CLASSIFICATION_TYPE":"U","SEMIMAJOR_AXIS":"6925.373","INCLINATION":"53.0554","EPHEMERIS_TYPE":"0","MEAN_ELEMENT_THEORY":"SGP4","ECCENTRICITY":"0.00011260","OBJECT_TYPE":"PAYLOAD","TLE_LINE2":"2 47375  53.0554  89.7556 0001126  84.2667 275.8450 15.06391926 52441","SITE":"AFETR","OBJECT_NAME":"STARLINK-2094","OBJECT_ID":"2021-005AC","RA_OF_ASC_NODE":"89.7556","REF_FRAME":"TEME","ELEMENT_SET_NO":"999"},{"SITE":"AFETR","OBJECT_TYPE":"PAYLOAD","TLE_LINE2":"2 47376  53.0562  90.3335 0001224  83.0933 277.0195 15.06394827 52427","REF_FRAME":"TEME","ELEMENT_SET_NO":"999","RA_OF_ASC_NODE":"90.3335","OBJECT_ID":"2021-005AD","OBJECT_NAME":"STARLINK-2096","INCLINATION":"53.0562","SEMIMAJOR_AXIS":"6925.364","CLASSIFICATION_TYPE":"U","ECCENTRICITY":"0.00012240","MEAN_ELEMENT_THEORY":"SGP4","EPHEMERIS_TYPE":"0","REV_AT_EPOCH":"5242","RCS_SIZE":"LARGE","BSTAR":"0.00005902700000","PERIAPSIS":"546.382","MEAN_MOTION_DOT":"0.00000598","LAUNCH_DATE":"2021-01-20","APOAPSIS":"548.077","MEAN_ANOMALY":"277.0195","FILE":"3255240","ARG_OF_PERICENTER":"83.0933","MEAN_MOTION_DDOT":"0.0000000000000","GP_ID":"192794407","EPOCH":"2021-12-30T15:06:39.135168","NORAD_CAT_ID":"47376","TLE_LINE1":"1 47376U 21005AD  21364.62961962  .00000598  00000-0  59027-4 0  9991","TIME_SYSTEM":"UTC","DECAY_DATE":null,"CENTER_NAME":"EARTH","COUNTRY_CODE":"US","PERIOD":"95.592","MEAN_MOTION":"15.06394827"},{"MEAN_ANOMALY":"261.7667","FILE":"3255240","LAUNCH_DATE":"2021-01-20","APOAPSIS":"548.171","BSTAR":"-0.00010809000000","PERIAPSIS":"546.333","MEAN_MOTION_DOT":"-0.00001890","REV_AT_EPOCH":"5242","RCS_SIZE":"LARGE","EPOCH":"2021-12-30T14:45:25.472160","NORAD_CAT_ID":"47377","ARG_OF_PERICENTER":"98.3473","GP_ID":"192795157","MEAN_MOTION_DDOT":"0.0000000000000","COUNTRY_CODE":"US","CENTER_NAME":"EARTH","PERIOD":"95.593","MEAN_MOTION":"15.06387369","DECAY_DATE":null,"TIME_SYSTEM":"UTC","TLE_LINE1":"1 47377U 21005AE  21364.61487815 -.00001890  00000-0 -10809-3 0  9993","SITE":"AFETR","OBJECT_TYPE":"PAYLOAD","TLE_LINE2":"2 47377  53.0601  90.3697 0001327  98.3473 261.7667 15.06387369 52422","OBJECT_NAME":"STARLINK-2097","OBJECT_ID":"2021-005AE","RA_OF_ASC_NODE":"90.3697","REF_FRAME":"TEME","ELEMENT_SET_NO":"999","CLASSIFICATION_TYPE":"U","INCLINATION":"53.0601","SEMIMAJOR_AXIS":"6925.387","EPHEMERIS_TYPE":"0","ECCENTRICITY":"0.00013270","MEAN_ELEMENT_THEORY":"SGP4"},{"RA_OF_ASC_NODE":"50.4313","REF_FRAME":"TEME","ELEMENT_SET_NO":"999","OBJECT_NAME":"STARLINK-2098","OBJECT_ID":"2021-005AF","SITE":"AFETR","TLE_LINE2":"2 47378  53.0567  50.4313 0001395  88.4858 271.6290 15.06395744 52987","OBJECT_TYPE":"PAYLOAD","EPHEMERIS_TYPE":"0","ECCENTRICITY":"0.00013950","MEAN_ELEMENT_THEORY":"SGP4","CLASSIFICATION_TYPE":"U","INCLINATION":"53.0567","SEMIMAJOR_AXIS":"6925.362","BSTAR":"0.00003464800000","PERIAPSIS":"546.261","MEAN_MOTION_DOT":"0.00000235","REV_AT_EPOCH":"5298","RCS_SIZE":"LARGE","MEAN_ANOMALY":"271.6290","FILE":"3255240","LAUNCH_DATE":"2021-01-20","APOAPSIS":"548.193","DECAY_DATE":null,"TLE_LINE1":"1 47378U 21005AF  21364.60750311  .00000235  00000-0  34648-4 0  9995","TIME_SYSTEM":"UTC","COUNTRY_CODE":"US","PERIOD":"95.592","CENTER_NAME":"EARTH","MEAN_MOTION":"15.06395744","EPOCH":"2021-12-30T14:34:48.268704","NORAD_CAT_ID":"47378","ARG_OF_PERICENTER":"88.4858","GP_ID":"192793905","MEAN_MOTION_DDOT":"0.0000000000000"},{"LAUNCH_DATE":"2021-01-20","APOAPSIS":"548.191","MEAN_ANOMALY":"273.3575","FILE":"3255239","REV_AT_EPOCH":"5296","RCS_SIZE":"LARGE","BSTAR":"0.00000182650000","PERIAPSIS":"546.281","MEAN_MOTION_DOT":"-0.00000254","COUNTRY_CODE":"US","PERIOD":"95.593","CENTER_NAME":"EARTH","MEAN_MOTION":"15.06392530","TLE_LINE1":"1 47379U 21005AG  21364.48218037 -.00000254  00000-0  18265-5 0  9996","TIME_SYSTEM":"UTC","DECAY_DATE":null,"ARG_OF_PERICENTER":"86.7571","MEAN_MOTION_DDOT":"0.0000000000000","GP_ID":"192770207","EPOCH":"2021-12-30T11:34:20.383968","NORAD_CAT_ID":"47379","OBJECT_ID":"2021-005AG","OBJECT_NAME":"STARLINK-2099","ELEMENT_SET_NO":"999","REF_FRAME":"TEME","RA_OF_ASC_NODE":"50.9817","SITE":"AFETR","TLE_LINE2":"2 47379  53.0551  50.9817 0001379  86.7571 273.3575 15.06392530 52963","OBJECT_TYPE":"PAYLOAD","ECCENTRICITY":"0.00013790","MEAN_ELEMENT_THEORY":"SGP4","EPHEMERIS_TYPE":"0","INCLINATION":"53.0551","SEMIMAJOR_AXIS":"6925.371","CLASSIFICATION_TYPE":"U"}];
